LEMUR-2-ARIANNA         
1 62699U 25009CU  26154.17114125  .00010251  00000+0  78085-3 0  9997
2 62699  97.6880 235.6688 0002702 160.7900 199.3427 15.02254576 75457
LEMUR-2-ALISIA          
1 62706U 25009DB  26155.01748721  .00009327  00000+0  70521-3 0  9994
2 62706  97.6974 237.2767 0000478 196.9822 163.1386 15.02567783 98183
LEMUR-2-ROUNDTRIPPER    
1 62711U 25009DG  26154.18575765  .00010135  00000+0  74639-3 0  9996
2 62711  97.7227 236.8882 0004102 176.1751 183.9507 15.03538335 75523
LEMUR-2-MYNAMEISJEFF    
1 62712U 25009DH  26155.11599099  .00010543  00000+0  77556-3 0  9991
2 62712  97.7280 238.1890 0002439 205.2703 154.8404 15.03574133 75663
LEMUR-2-LEIA-PHILIP     
1 63246U 25052AN  26154.57033669  .00002017  00000+0  17908-3 0  9999
2 63246  97.6839  46.7497 0002256 274.8690  85.2275 14.97270896 66636
LEMUR-2-LIA-MARTIN      
1 63248U 25052AQ  26154.64627833  .00006030  00000+0  51975-3 0  9992
2 63248  97.6900  47.2792 0001965 193.7711 166.3458 14.97674757 66650
LEMUR-2-DELOITTE-1      
1 63259U 25052BB  26154.95499220  .00004101  00000+0  35676-3 0  9992
2 63259  97.6925  47.9129 0002083 117.9427 242.2006 14.97500114 66719
LEMUR-2-EMERSONROSE     
1 63261U 25052BD  26155.67753272  .00003995  00000+0  33451-3 0  9994
2 63261  97.6915  49.1587 0002867  79.0066 281.1480 14.98995914 66861
LEMUR-2-MARACHE-FRAN    
1 63262U 25052BE  26154.66052588  .00007082  00000+0  57463-3 0  9995
2 63262  97.6941  48.4427 0006474  64.4566 295.7326 14.99944977 66737
LEMUR-2-THEFALCONER     
1 63264U 25052BG  26154.64540633  .00004720  00000+0  41202-3 0  9998
2 63264  97.6871  47.2416 0003553  68.9762 291.1839 14.97286597 66664
LEMUR-2-UNTITLED-SC     
1 63351U 25061A   26153.74127211  .00004603  00000+0  26090-3 0  9996
2 63351  97.5632 129.2105 0017583 319.3416  40.6501 15.13366349 65405
LEMUR-2-ESPERANZA       
1 63352U 25061B   26154.44656555  .00003752  00000+0  21282-3 0  9995
2 63352  97.5640 130.0007 0017038 316.2764  43.7116 15.13467094 65510
LEMUR-2-KREMPEL-BRO2    
1 63353U 25061C   26155.73331284  .00004712  00000+0  26296-3 0  9995
2 63353  97.5689 131.7954 0017715 303.1121  56.8409 15.13910230 65725
LEMUR-2-THERMORAPTOR    
1 63354U 25061D   26154.98900498  .00004355  00000+0  24289-3 0  9994
2 63354  97.5694 131.1285 0017367 304.9847  54.9753 15.13981450 65611
LEMUR-2-NEUROSPICY      
1 63355U 25061E   26154.43297257  .00004338  00000+0  24142-3 0  9996
2 63355  97.5616 130.2128 0015369 311.3082  48.6825 15.14088834 65531
LEMUR-2-TILLINFINITY    
1 63356U 25061F   26155.72873500  .00004592  00000+0  25098-3 0  9994
2 63356  97.5605 131.7817 0016277 293.0371  66.9144 15.14689557 65757
LEMUR-2-KREMPEL-BRO1    
1 63357U 25061G   26155.17204064  .00004255  00000+0  23409-3 0  9997
2 63357  97.5605 131.1482 0017033 296.4114  63.5370 15.14489279 65666
LEMUR-2-LANGER2SPACE    
1 63358U 25061H   26154.46902708  .00004548  00000+0  25228-3 0  9995
2 63358  97.5611 130.2690 0015293 309.4835  50.5043 15.14181758 65547
LEMUR-2-BALTO           
1 63395U 25052BH  26154.64504794  .00006128  00000+0  49811-3 0  9999
2 63395  97.6879  48.4160 0006234  91.6016 268.5922 14.99932268 66734
LEMUR-2-KRISH           
1 64561U 25135AK  26154.89899575  .00005021  00000+0  45186-3 0  9990
2 64561  97.7733 269.8701 0001223  98.2573 261.8786 14.96076358 51930
LEMUR-2-HUBBLE-4        
1 64565U 25135AP  26155.13593389  .00002606  00000+0  25510-3 0  9991
2 64565  97.7689 269.2018 0001956  15.5492 344.5787 14.93160469 51927
LEMUR-2-SEJONG-2        
1 64586U 25135BL  26155.20087975  .00006147  00000+0  54467-3 0  9998
2 64586  97.7680 270.3126 0004813  31.9885 328.1628 14.96586483 52000
LEMUR-2-HUBBLE-5        
1 64840U 25135BT  26154.76332221  .00001312  00000+0  12814-3 0  9997
2 64840  97.7709 269.4455 0006211  36.4294 323.7348 14.94092972 51908
LEMUR-2-KARENDARRELL    
1 64841U 25135BU  26154.57651515  .00008963  00000+0  72634-3 0  9992
2 64841  97.7678 270.8110 0008808 255.0444 104.9804 14.99903844 51975
LEMUR-2-LUCILLE-ROSE    
1 65403U 25135BV  26154.28390775  .00008059  00000+0  65252-3 0  9997
2 65403  97.7772 270.5195 0010643 337.2448  22.8302 14.99959954 46554
LEMUR-2-AFFIE-WAUWIE    
1 66295U 25248C   26152.48471986  .00015776  00000+0  59909-3 0  9992
2 66295  45.3867 200.0340 0009699 347.2049  12.8593 15.26700156 32190
LEMUR-2-DEANANDMAEVE    
1 66678U 25276N   26155.14538150  .00008331  00000+0  39453-3 0  9992
2 66678  97.4214 228.8397 0006806  54.3697 305.8170 15.19563707 28430
LEMUR-2-STAS-GORBUK     
1 66686U 25276W   26155.15696368  .00007187  00000+0  34409-3 0  9992
2 66686  97.4245 228.9060 0006319  54.9731 305.2095 15.19234451 28436
LEMUR-2-TEODOR          
1 66768U 25276DG  26155.15500957  .00007151  00000+0  32646-3 0  9993
2 66768  97.4148 229.1239 0001696 126.4958 233.6434 15.20901398 28466
LEMUR-2-LAILA           
1 66776U 25276DQ  26155.65707412  .00006566  00000+0  29805-3 0  9994
2 66776  97.4174 229.7313 0001381 147.7326 212.3994 15.21128129 28547
